STARLINK-3832           
1 52646U 22052BA  26068.72757153  .00001900  00000+0  13745-3 0  9995
2 52646  53.2169 258.9908 0001473  82.0163 278.0997 15.08839779211145
LEMUR-2-TILLINFINITY    
1 63356U 25061F   26068.90312914  .00005472  00000+0  30454-3 0  9994
2 63356  97.5532  45.5587 0016891 226.7020 133.2804 15.13945199 52616
